[
  {
    "COMMENT": "GENERATED VIA SPACETRACK.ORG API",
    "ORIGINATOR": "18 SPCS",
    "NORAD_CAT_ID": "46469",
    "OBJECT_NAME": "HAIYANG 2C",
    "OBJECT_TYPE": "PAYLOAD",
    "CLASSIFICATION_TYPE": "U",
    "INTLDES": "20066A",
    "EPOCH": "2023-04-11 21:11:12",
    "EPOCH_MICROSECONDS": "333696",
    "MEAN_MOTION": "13.83375676",
    "ECCENTRICITY": "0.000636",
    "INCLINATION": "65.9958",
    "RA_OF_ASC_NODE": "229.1686",
    "ARG_OF_PERICENTER": "297.4727",
    "MEAN_ANOMALY": "62.5697",
    "EPHEMERIS_TYPE": "0",
    "ELEMENT_SET_NO": "999",
    "REV_AT_EPOCH": "12901",
    "BSTAR": "0.000050355",
    "MEAN_MOTION_DOT": "-0.00000026",
    "MEAN_MOTION_DDOT": "0",
    "FILE": "3885919",
    "TLE_LINE0": "0 HAIYANG 2C",
    "TLE_LINE1": "1 46469U 20066A   23101.88278164 -.00000026  00000-0  50355-4 0  9995",
    "TLE_LINE2": "2 46469  65.9958 229.1686 0006360 297.4727  62.5697 13.83375676129017",
    "OBJECT_ID": "2020-066A",
    "OBJECT_NUMBER": "46469",
    "SEMIMAJOR_AXIS": "7330.075",
    "PERIOD": "104.093",
    "APOGEE": "956.602",
    "PERIGEE": "947.278",
    "DECAYED": "0"
  },
  {
    "COMMENT": "GENERATED VIA SPACETRACK.ORG API",
    "ORIGINATOR": "18 SPCS",
    "NORAD_CAT_ID": "46469",
    "OBJECT_NAME": "HAIYANG 2C",
    "OBJECT_TYPE": "PAYLOAD",
    "CLASSIFICATION_TYPE": "U",
    "INTLDES": "20066A",
    "EPOCH": "2023-04-11 22:55:18",
    "EPOCH_MICROSECONDS": "588000",
    "MEAN_MOTION": "13.83375666",
    "ECCENTRICITY": "0.0006361",
    "INCLINATION": "65.9958",
    "RA_OF_ASC_NODE": "228.9887",
    "ARG_OF_PERICENTER": "297.4019",
    "MEAN_ANOMALY": "62.6402",
    "EPHEMERIS_TYPE": "0",
    "ELEMENT_SET_NO": "999",
    "REV_AT_EPOCH": "12902",
    "BSTAR": "0.000048638",
    "MEAN_MOTION_DOT": "-0.00000028",
    "MEAN_MOTION_DDOT": "0",
    "FILE": "3885988",
    "TLE_LINE0": "0 HAIYANG 2C",
    "TLE_LINE1": "1 46469U 20066A   23101.95507625 -.00000028  00000-0  48638-4 0  9993",
    "TLE_LINE2": "2 46469  65.9958 228.9887 0006361 297.4019  62.6402 13.83375666129027",
    "OBJECT_ID": "2020-066A",
    "OBJECT_NUMBER": "46469",
    "SEMIMAJOR_AXIS": "7330.075",
    "PERIOD": "104.093",
    "APOGEE": "956.603",
    "PERIGEE": "947.277",
    "DECAYED": "0"
  },
  {
    "COMMENT": "GENERATED VIA SPACETRACK.ORG API",
    "ORIGINATOR": "18 SPCS",
    "NORAD_CAT_ID": "46469",
    "OBJECT_NAME": "HAIYANG 2C",
    "OBJECT_TYPE": "PAYLOAD",
    "CLASSIFICATION_TYPE": "U",
    "INTLDES": "20066A",
    "EPOCH": "2023-04-12 11:04:02",
    "EPOCH_MICROSECONDS": "402688",
    "MEAN_MOTION": "13.83375684",
    "ECCENTRICITY": "0.0006389",
    "INCLINATION": "65.9959",
    "RA_OF_ASC_NODE": "227.7288",
    "ARG_OF_PERICENTER": "297.3844",
    "MEAN_ANOMALY": "62.6569",
    "EPHEMERIS_TYPE": "0",
    "ELEMENT_SET_NO": "999",
    "REV_AT_EPOCH": "12909",
    "BSTAR": "0.000044507",
    "MEAN_MOTION_DOT": "-0.00000032",
    "MEAN_MOTION_DDOT": "0",
    "FILE": "3886216",
    "TLE_LINE0": "0 HAIYANG 2C",
    "TLE_LINE1": "1 46469U 20066A   23102.46113892 -.00000032  00000-0  44507-4 0  9995",
    "TLE_LINE2": "2 46469  65.9959 227.7288 0006389 297.3844  62.6569 13.83375684129096",
    "OBJECT_ID": "2020-066A",
    "OBJECT_NUMBER": "46469",
    "SEMIMAJOR_AXIS": "7330.075",
    "PERIOD": "104.093",
    "APOGEE": "956.623",
    "PERIGEE": "947.257",
    "DECAYED": "0"
  },
  {
    "COMMENT": "GENERATED VIA SPACETRACK.ORG API",
    "ORIGINATOR": "18 SPCS",
    "NORAD_CAT_ID": "46469",
    "OBJECT_NAME": "HAIYANG 2C",
    "OBJECT_TYPE": "PAYLOAD",
    "CLASSIFICATION_TYPE": "U",
    "INTLDES": "20066A",
    "EPOCH": "2023-04-12 11:04:02",
    "EPOCH_MICROSECONDS": "402688",
    "MEAN_MOTION": "13.83375684",
    "ECCENTRICITY": "0.0006389",
    "INCLINATION": "65.9959",
    "RA_OF_ASC_NODE": "227.7288",
    "ARG_OF_PERICENTER": "297.3844",
    "MEAN_ANOMALY": "62.6569",
    "EPHEMERIS_TYPE": "0",
    "ELEMENT_SET_NO": "999",
    "REV_AT_EPOCH": "12909",
    "BSTAR": "0.000044507",
    "MEAN_MOTION_DOT": "-0.00000032",
    "MEAN_MOTION_DDOT": "0",
    "FILE": "3886349",
    "TLE_LINE0": "0 HAIYANG 2C",
    "TLE_LINE1": "1 46469U 20066A   23102.46113892 -.00000032  00000-0  44507-4 0  9995",
    "TLE_LINE2": "2 46469  65.9959 227.7288 0006389 297.3844  62.6569 13.83375684129096",
    "OBJECT_ID": "2020-066A",
    "OBJECT_NUMBER": "46469",
    "SEMIMAJOR_AXIS": "7330.075",
    "PERIOD": "104.093",
    "APOGEE": "956.623",
    "PERIGEE": "947.257",
    "DECAYED": "0"
  },
  {
    "COMMENT": "GENERATED VIA SPACETRACK.ORG API",
    "ORIGINATOR": "18 SPCS",
    "NORAD_CAT_ID": "46469",
    "OBJECT_NAME": "HAIYANG 2C",
    "OBJECT_TYPE": "PAYLOAD",
    "CLASSIFICATION_TYPE": "U",
    "INTLDES": "20066A",
    "EPOCH": "2023-04-12 18:00:27",
    "EPOCH_MICROSECONDS": "438912",
    "MEAN_MOTION": "13.83375841",
    "ECCENTRICITY": "0.0006419",
    "INCLINATION": "65.996",
    "RA_OF_ASC_NODE": "227.0089",
    "ARG_OF_PERICENTER": "297.6816",
    "MEAN_ANOMALY": "62.3599",
    "EPHEMERIS_TYPE": "0",
    "ELEMENT_SET_NO": "999",
    "REV_AT_EPOCH": "12913",
    "BSTAR": "0.0000539",
    "MEAN_MOTION_DOT": "-0.00000022",
    "MEAN_MOTION_DDOT": "0",
    "FILE": "3886411",
    "TLE_LINE0": "0 HAIYANG 2C",
    "TLE_LINE1": "1 46469U 20066A   23102.75031758 -.00000022  00000-0  53900-4 0  9993",
    "TLE_LINE2": "2 46469  65.9960 227.0089 0006419 297.6816  62.3599 13.83375841129136",
    "OBJECT_ID": "2020-066A",
    "OBJECT_NUMBER": "46469",
    "SEMIMAJOR_AXIS": "7330.074",
    "PERIOD": "104.093",
    "APOGEE": "956.645",
    "PERIGEE": "947.234",
    "DECAYED": "0"
  },
  {
    "COMMENT": "GENERATED VIA SPACETRACK.ORG API",
    "ORIGINATOR": "18 SPCS",
    "NORAD_CAT_ID": "46469",
    "OBJECT_NAME": "HAIYANG 2C",
    "OBJECT_TYPE": "PAYLOAD",
    "CLASSIFICATION_TYPE": "U",
    "INTLDES": "20066A",
    "EPOCH": "2023-04-13 11:21:30",
    "EPOCH_MICROSECONDS": "4416",
    "MEAN_MOTION": "13.83375961",
    "ECCENTRICITY": "0.0006438",
    "INCLINATION": "65.9961",
    "RA_OF_ASC_NODE": "225.2089",
    "ARG_OF_PERICENTER": "297.612",
    "MEAN_ANOMALY": "62.4286",
    "EPHEMERIS_TYPE": "0",
    "ELEMENT_SET_NO": "999",
    "REV_AT_EPOCH": "12923",
    "BSTAR": "0.000053812",
    "MEAN_MOTION_DOT": "-0.00000022",
    "MEAN_MOTION_DDOT": "0",
    "FILE": "3886564",
    "TLE_LINE0": "0 HAIYANG 2C",
    "TLE_LINE1": "1 46469U 20066A   23103.47326394 -.00000022  00000-0  53812-4 0  9998",
    "TLE_LINE2": "2 46469  65.9961 225.2089 0006438 297.6120  62.4286 13.83375961129234",
    "OBJECT_ID": "2020-066A",
    "OBJECT_NUMBER": "46469",
    "SEMIMAJOR_AXIS": "7330.074",
    "PERIOD": "104.093",
    "APOGEE": "956.658",
    "PERIGEE": "947.220",
    "DECAYED": "0"
  },
  {
    "COMMENT": "GENERATED VIA SPACETRACK.ORG API",
    "ORIGINATOR": "18 SPCS",
    "NORAD_CAT_ID": "46469",
    "OBJECT_NAME": "HAIYANG 2C",
    "OBJECT_TYPE": "PAYLOAD",
    "CLASSIFICATION_TYPE": "U",
    "INTLDES": "20066A",
    "EPOCH": "2023-04-13 18:17:55",
    "EPOCH_MICROSECONDS": "39776",
    "MEAN_MOTION": "13.83376176",
    "ECCENTRICITY": "0.0006454",
    "INCLINATION": "65.9962",
    "RA_OF_ASC_NODE": "224.4891",
    "ARG_OF_PERICENTER": "297.5938",
    "MEAN_ANOMALY": "62.4481",
    "EPHEMERIS_TYPE": "0",
    "ELEMENT_SET_NO": "999",
    "REV_AT_EPOCH": "12927",
    "BSTAR": "0.000067889",
    "MEAN_MOTION_DOT": "-0.00000007",
    "MEAN_MOTION_DDOT": "0",
    "FILE": "3886682",
    "TLE_LINE0": "0 HAIYANG 2C",
    "TLE_LINE1": "1 46469U 20066A   23103.76244259 -.00000007  00000-0  67889-4 0  9991",
    "TLE_LINE2": "2 46469  65.9962 224.4891 0006454 297.5938  62.4481 13.83376176129271",
    "OBJECT_ID": "2020-066A",
    "OBJECT_NUMBER": "46469",
    "SEMIMAJOR_AXIS": "7330.073",
    "PERIOD": "104.093",
    "APOGEE": "956.669",
    "PERIGEE": "947.207",
    "DECAYED": "0"
  },
  {
    "COMMENT": "GENERATED VIA SPACETRACK.ORG API",
    "ORIGINATOR": "18 SPCS",
    "NORAD_CAT_ID": "46469",
    "OBJECT_NAME": "HAIYANG 2C",
    "OBJECT_TYPE": "PAYLOAD",
    "CLASSIFICATION_TYPE": "U",
    "INTLDES": "20066A",
    "EPOCH": "2023-04-14 02:58:26",
    "EPOCH_MICROSECONDS": "309568",
    "MEAN_MOTION": "13.83376343",
    "ECCENTRICITY": "0.0006466",
    "INCLINATION": "65.9962",
    "RA_OF_ASC_NODE": "223.5893",
    "ARG_OF_PERICENTER": "297.6231",
    "MEAN_ANOMALY": "62.4185",
    "EPHEMERIS_TYPE": "0",
    "ELEMENT_SET_NO": "999",
    "REV_AT_EPOCH": "12932",
    "BSTAR": "0.000075452",
    "MEAN_MOTION_DOT": "0.00000002",
    "MEAN_MOTION_DDOT": "0",
    "FILE": "3887058",
    "TLE_LINE0": "0 HAIYANG 2C",
    "TLE_LINE1": "1 46469U 20066A   23104.12391562  .00000002  00000-0  75452-4 0  9991",
    "TLE_LINE2": "2 46469  65.9962 223.5893 0006466 297.6231  62.4185 13.83376343129326",
    "OBJECT_ID": "2020-066A",
    "OBJECT_NUMBER": "46469",
    "SEMIMAJOR_AXIS": "7330.073",
    "PERIOD": "104.093",
    "APOGEE": "956.677",
    "PERIGEE": "947.198",
    "DECAYED": "0"
  }
]